[{"OBJECT_NAME":"STARLINK-4719","OBJECT_ID":"2022-111B","EPOCH":"2026-03-09T20:43:05.634624","MEAN_MOTION":15.08845552,"ECCENTRICITY":0.00012818,"INCLINATION":53.2162,"RA_OF_ASC_NODE":283.2276,"ARG_OF_PERICENTER":98.5226,"MEAN_ANOMALY":261.5912,"EPHEMERIS_TYPE":0,"CLASSIFICATION_TYPE":"U","NORAD_CAT_ID":53774,"ELEMENT_SET_NO":999,"REV_AT_EPOCH":19373,"BSTAR":8.1658288e-5,"MEAN_MOTION_DOT":1.012e-5,"MEAN_MOTION_DDOT":0},{"OBJECT_NAME":"COSMOS 397 DEB","OBJECT_ID":"1971-015CL","EPOCH":"2026-03-09T09:22:46.507584","MEAN_MOTION":13.84977696,"ECCENTRICITY":0.05617651,"INCLINATION":65.8946,"RA_OF_ASC_NODE":104.3108,"ARG_OF_PERICENTER":166.7711,"MEAN_ANOMALY":194.8817,"EPHEMERIS_TYPE":0,"CLASSIFICATION_TYPE":"U","NORAD_CAT_ID":6844,"ELEMENT_SET_NO":999,"REV_AT_EPOCH":60675,"BSTAR":0.00073965621,"MEAN_MOTION_DOT":2.836e-5,"MEAN_MOTION_DDOT":0}]
